{
  "type": "FeatureCollection",
  "features": [
    {
      "type": "Feature",
      "properties": {
        "norad_id": 66387,
        "name": "STARLINK-35661",
        "group": "last-30-days",
        "lat": 50.05156576254277,
        "lon": -18.071419861019177,
        "alt_km": 439.6172924492339,
        "timestamp": "2025-12-09T18:55:16.020756+00:00",
        "meta_object_name": "STARLINK-35661",
        "meta_object_id": "2025-257H",
        "meta_epoch": "2025-12-09T03:01:29.608896",
        "meta_mean_motion": 15.39623682,
        "meta_eccentricity": 0.00010382,
        "meta_inclination": 53.1594,
        "meta_ra_of_asc_node": 281.5253,
        "meta_arg_of_pericenter": 87.1065,
        "meta_mean_anomaly": 273.0059,
        "meta_ephemeris_type": 0,
        "meta_classification_type": "U",
        "meta_norad_cat_id": 66387,
        "meta_element_set_no": 999,
        "meta_rev_at_epoch": 581,
        "meta_bstar": 0.0012949213,
        "meta_mean_motion_dot": 0.00051755,
        "meta_mean_motion_ddot": 0,
        "tle_line1": "1 66387U 25257H   25343.12603714  .00051755  00000+0  12949-2 0  9991",
        "tle_line2": "2 66387  53.1594 281.5253 0001038  87.1065 273.0059 15.39623682  5819"
      },
      "geometry": {
        "type": "Point",
        "coordinates": [
          -18.071419861019177,
          50.05156576254277
        ]
      }
    },
    {
      "type": "Feature",
      "properties": {
        "norad_id": 66388,
        "name": "STARLINK-35647",
        "group": "last-30-days",
        "lat": 52.58757464195941,
        "lon": 19.772038952046916,
        "alt_km": 440.43759157713157,
        "timestamp": "2025-12-09T18:55:16.020767+00:00",
        "meta_object_name": "STARLINK-35647",
        "meta_object_id": "2025-257J",
        "meta_epoch": "2025-12-09T02:55:18.643584",
        "meta_mean_motion": 15.39514665,
        "meta_eccentricity": 0.00010774,
        "meta_inclination": 53.1581,
        "meta_ra_of_asc_node": 281.4976,
        "meta_arg_of_pericenter": 1.9018,
        "meta_mean_anomaly": 358.1991,
        "meta_ephemeris_type": 0,
        "meta_classification_type": "U",
        "meta_norad_cat_id": 66388,
        "meta_element_set_no": 999,
        "meta_rev_at_epoch": 581,
        "meta_bstar": 0.00049045529,
        "meta_mean_motion_dot": 0.000192,
        "meta_mean_motion_ddot": 0,
        "tle_line1": "1 66388U 25257J   25343.12174356  .00019200  00000+0  49046-3 0  9995",
        "tle_line2": "2 66388  53.1581 281.4976 0001077   1.9018 358.1991 15.39514665  5812"
      },
      "geometry": {
        "type": "Point",
        "coordinates": [
          19.772038952046916,
          52.58757464195941
        ]
      }
    },
    {
      "type": "Feature",
      "properties": {
        "norad_id": 66389,
        "name": "STARLINK-35694",
        "group": "last-30-days",
        "lat": 40.965186503109564,
        "lon": 57.68784971893435,
        "alt_km": 441.05124082554266,
        "timestamp": "2025-12-09T18:55:16.020779+00:00",
        "meta_object_name": "STARLINK-35694",
        "meta_object_id": "2025-257K",
        "meta_epoch": "2025-12-09T02:48:07.134336",
        "meta_mean_motion": 15.39618543,
        "meta_eccentricity": 8.85e-05,
        "meta_inclination": 53.1601,
        "meta_ra_of_asc_node": 281.4644,
        "meta_arg_of_pericenter": 95.9598,
        "meta_mean_anomaly": 264.1508,
        "meta_ephemeris_type": 0,
        "meta_classification_type": "U",
        "meta_norad_cat_id": 66389,
        "meta_element_set_no": 999,
        "meta_rev_at_epoch": 581,
        "meta_bstar": 0.0016910395,
        "meta_mean_motion_dot": 0.00067841,
        "meta_mean_motion_ddot": 0,
        "tle_line1": "1 66389U 25257K   25343.11674924  .00067841  00000+0  16910-2 0  9998",
        "tle_line2": "2 66389  53.1601 281.4644 0000885  95.9598 264.1508 15.39618543  5810"
      },
      "geometry": {
        "type": "Point",
        "coordinates": [
          57.68784971893435,
          40.965186503109564
        ]
      }
    },
    {
      "type": "Feature",
      "properties": {
        "norad_id": 66390,
        "name": "STARLINK-35665",
        "group": "last-30-days",
        "lat": -11.905990675421172,
        "lon": -91.23693831409335,
        "alt_km": 420.7239623375699,
        "timestamp": "2025-12-09T18:55:16.020795+00:00",
        "meta_object_name": "STARLINK-35665",
        "meta_object_id": "2025-257L",
        "meta_epoch": "2025-12-09T12:47:34.825344",
        "meta_mean_motion": 15.49373285,
        "meta_eccentricity": 0.00014831,
        "meta_inclination": 53.159,
        "meta_ra_of_asc_node": 279.0799,
        "meta_arg_of_pericenter": 79.518,
        "meta_mean_anomaly": 280.5996,
        "meta_ephemeris_type": 0,
        "meta_classification_type": "U",
        "meta_norad_cat_id": 66390,
        "meta_element_set_no": 999,
        "meta_rev_at_epoch": 598,
        "meta_bstar": 0.0027953313,
        "meta_mean_motion_dot": 0.0015857,
        "meta_mean_motion_ddot": 0,
        "tle_line1": "1 66390U 25257L   25343.53304196  .00158570  00000+0  27953-2 0  9996",
        "tle_line2": "2 66390  53.1590 279.0799 0001483  79.5180 280.5996 15.49373285  5986"
      },
      "geometry": {
        "type": "Point",
        "coordinates": [
          -91.23693831409335,
          -11.905990675421172
        ]
      }
    },
    {
      "type": "Feature",
      "properties": {
        "norad_id": 66391,
        "name": "STARLINK-35656",
        "group": "last-30-days",
        "lat": 42.0347708029186,
        "lon": 55.766586001833836,
        "alt_km": 440.66766418390216,
        "timestamp": "2025-12-09T18:55:16.020806+00:00",
        "meta_object_name": "STARLINK-35656",
        "meta_object_id": "2025-257M",
        "meta_epoch": "2025-12-09T02:48:35.648928",
        "meta_mean_motion": 15.39625568,
        "meta_eccentricity": 0.00011473,
        "meta_inclination": 53.1595,
        "meta_ra_of_asc_node": 281.4538,
        "meta_arg_of_pericenter": 91.2559,
        "meta_mean_anomaly": 268.8577,
        "meta_ephemeris_type": 0,
        "meta_classification_type": "U",
        "meta_norad_cat_id": 66391,
        "meta_element_set_no": 999,
        "meta_rev_at_epoch": 591,
        "meta_bstar": 0.0020518175,
        "meta_mean_motion_dot": 0.0008258,
        "meta_mean_motion_ddot": 0,
        "tle_line1": "1 66391U 25257M   25343.11707927  .00082580  00000+0  20518-2 0  9997",
        "tle_line2": "2 66391  53.1595 281.4538 0001147  91.2559 268.8577 15.39625568  5918"
      },
      "geometry": {
        "type": "Point",
        "coordinates": [
          55.766586001833836,
          42.0347708029186
        ]
      }
    },
    {
      "type": "Feature",
      "properties": {
        "norad_id": 66392,
        "name": "STARLINK-35671",
        "group": "last-30-days",
        "lat": 52.16017616222512,
        "lon": 23.526982197858082,
        "alt_km": 439.2112536037248,
        "timestamp": "2025-12-09T18:55:16.020816+00:00",
        "meta_object_name": "STARLINK-35671",
        "meta_object_id": "2025-257N",
        "meta_epoch": "2025-12-09T02:54:48.330144",
        "meta_mean_motion": 15.39651087,
        "meta_eccentricity": 0.00010619,
        "meta_inclination": 53.1605,
        "meta_ra_of_asc_node": 281.4947,
        "meta_arg_of_pericenter": 84.7676,
        "meta_mean_anomaly": 275.345,
        "meta_ephemeris_type": 0,
        "meta_classification_type": "U",
        "meta_norad_cat_id": 66392,
        "meta_element_set_no": 999,
        "meta_rev_at_epoch": 581,
        "meta_bstar": 0.0013579715,
        "meta_mean_motion_dot": 0.00054362,
        "meta_mean_motion_ddot": 0,
        "tle_line1": "1 66392U 25257N   25343.12139271  .00054362  00000+0  13580-2 0  9998",
        "tle_line2": "2 66392  53.1605 281.4947 0001061  84.7676 275.3450 15.39651087  5814"
      },
      "geometry": {
        "type": "Point",
        "coordinates": [
          23.526982197858082,
          52.16017616222512
        ]
      }
    },
    {
      "type": "Feature",
      "properties": {
        "norad_id": 66393,
        "name": "STARLINK-35652",
        "group": "last-30-days",
        "lat": 24.422787331519842,
        "lon": 78.3463350326189,
        "alt_km": 444.36121429571904,
        "timestamp": "2025-12-09T18:55:16.020831+00:00",
        "meta_object_name": "STARLINK-35652",
        "meta_object_id": "2025-257P",
        "meta_epoch": "2025-12-09T16:00:01.999584",
        "meta_mean_motion": 15.3947632,
        "meta_eccentricity": 9.876e-05,
        "meta_inclination": 53.159,
        "meta_ra_of_asc_node": 278.8246,
        "meta_arg_of_pericenter": 101.7346,
        "meta_mean_anomaly": 92.2516,
        "meta_ephemeris_type": 0,
        "meta_classification_type": "U",
        "meta_norad_cat_id": 66393,
        "meta_element_set_no": 999,
        "meta_rev_at_epoch": 600,
        "meta_bstar": 0.0032394101,
        "meta_mean_motion_dot": 0.001308,
        "meta_mean_motion_ddot": 0,
        "tle_line1": "1 66393U 25257P   25343.66668981  .00130800  00000+0  32394-2 0  9999",
        "tle_line2": "2 66393  53.1590 278.8246 0000987 101.7346  92.2516 15.39476320  6006"
      },
      "geometry": {
        "type": "Point",
        "coordinates": [
          78.3463350326189,
          24.422787331519842
        ]
      }
    }
  ]
}